[{"OBJECT_NAME":"STRIX-2","OBJECT_ID":"2024-248A","EPOCH":"2026-03-09T23:00:54.819648","MEAN_MOTION":15.07630986,"ECCENTRICITY":0.00151844,"INCLINATION":97.6197,"RA_OF_ASC_NODE":25.3276,"ARG_OF_PERICENTER":319.5195,"MEAN_ANOMALY":40.4902,"EPHEMERIS_TYPE":0,"CLASSIFICATION_TYPE":"U","NORAD_CAT_ID":62406,"ELEMENT_SET_NO":999,"REV_AT_EPOCH":6663,"BSTAR":0.00066021351,"MEAN_MOTION_DOT":0.00010025,"MEAN_MOTION_DDOT":0},{"OBJECT_NAME":"STARLINK-35250","OBJECT_ID":"2025-207M","EPOCH":"2026-03-09T18:04:32.435616","MEAN_MOTION":15.05641543,"ECCENTRICITY":0.00012259,"INCLINATION":97.6026,"RA_OF_ASC_NODE":138.767,"ARG_OF_PERICENTER":136.4166,"MEAN_ANOMALY":223.7158,"EPHEMERIS_TYPE":0,"CLASSIFICATION_TYPE":"U","NORAD_CAT_ID":65603,"ELEMENT_SET_NO":999,"REV_AT_EPOCH":2827,"BSTAR":0.00017022586,"MEAN_MOTION_DOT":2.396e-5,"MEAN_MOTION_DDOT":0}]
